JINJUSAT-1B             
1 63210U 25052A   26068.66363707  .00019955  00000+0  68430-3 0  9998
2 63210  97.4113 325.4613 0005550  82.1930 277.9941 15.30194857 54866
STARLINK-33641          
1 63718U 25087X   26068.72280609  .00027667  00000+0  94263-3 0  9997
2 63718  53.1582 219.4711 0000960  99.8078 260.3031 15.30204940 49200
