[{"OBJECT_NAME":"JINJUSAT-1B","OBJECT_ID":"2025-052A","EPOCH":"2026-03-09T15:55:38.242848","MEAN_MOTION":15.30194857,"ECCENTRICITY":0.00055504,"INCLINATION":97.4113,"RA_OF_ASC_NODE":325.4613,"ARG_OF_PERICENTER":82.193,"MEAN_ANOMALY":277.9941,"EPHEMERIS_TYPE":0,"CLASSIFICATION_TYPE":"U","NORAD_CAT_ID":63210,"ELEMENT_SET_NO":999,"REV_AT_EPOCH":5486,"BSTAR":0.00068430401,"MEAN_MOTION_DOT":0.00019955,"MEAN_MOTION_DDOT":0},{"OBJECT_NAME":"STARLINK-33641","OBJECT_ID":"2025-087X","EPOCH":"2026-03-09T17:20:50.446176","MEAN_MOTION":15.3020494,"ECCENTRICITY":9.6e-5,"INCLINATION":53.1582,"RA_OF_ASC_NODE":219.4711,"ARG_OF_PERICENTER":99.8078,"MEAN_ANOMALY":260.3031,"EPHEMERIS_TYPE":0,"CLASSIFICATION_TYPE":"U","NORAD_CAT_ID":63718,"ELEMENT_SET_NO":999,"REV_AT_EPOCH":4920,"BSTAR":0.00094262608,"MEAN_MOTION_DOT":0.00027667,"MEAN_MOTION_DDOT":0}]
